NORAD_CAT_ID,OBJECT_NAME,OBJECT_TYPE,EPOCH,MEAN_MOTION,ECCENTRICITY,INCLINATION,RA_OF_ASC_NODE,ARG_OF_PERICENTER,MEAN_ANOMALY,BSTAR,MEAN_MOTION_DOT,MEAN_MOTION_DDOT,TLE_LINE0,TLE_LINE1,TLE_LINE2,SEMIMAJOR_AXIS,PERIOD,APOGEE,PERIGEE,DECAYED
55305.0,STARLINK-5316,PAYLOAD,2024-08-07 20:59:40,14.98337697,0.0002997,70.0004,44.0417,271.7531,88.3285,0.00012533,1.403e-05,0.0,0 STARLINK-5316,1 55305U 23010AN  24220.87477289  .00001403  00000-0  12533-3 0  9991,2 55305  70.0004  44.0417 0002997 271.7531  88.3285 14.98337697 86571,6950.169,96.107,574.117,569.951,0.0
55305.0,STARLINK-5316,PAYLOAD,2024-08-08 13:01:01,14.98327981,0.0002962,70.0006,42.3586,270.9746,89.1074,2.5259e-05,2.08e-06,0.0,0 STARLINK-5316,1 55305U 23010AN  24221.54238220  .00000208  00000-0  25259-4 0  9998,2 55305  70.0006  42.3586 0002962 270.9746  89.1074 14.98327981 86673,6950.199,96.107,574.123,570.005,0.0
55305.0,STARLINK-5316,PAYLOAD,2024-08-08 21:01:42,14.98327289,0.0002897,70.0009,41.5177,268.8986,91.1841,3.0769e-05,2.74e-06,0.0,0 STARLINK-5316,1 55305U 23010AN  24221.87618266  .00000274  00000-0  30769-4 0  9991,2 55305  70.0009  41.5177 0002897 268.8986  91.1841 14.98327289 86409,6950.201,96.107,574.08,570.053,0.0
55305.0,STARLINK-5316,PAYLOAD,2024-08-09 13:03:02,14.98336657,0.000296,70.0007,39.834,267.9426,92.1394,1.5985e-05,9.8e-07,0.0,0 STARLINK-5316,1 55305U 23010AN  24222.54377700  .00000098  00000-0  15985-4 0  9998,2 55305  70.0007  39.8340 0002960 267.9426  92.1394 14.98336657 86503,6950.172,96.107,574.095,569.98,0.0
55305.0,STARLINK-5316,PAYLOAD,2024-08-09 21:03:42,14.983397,0.0002919,70.001,38.9925,267.753,92.3295,5.3997e-05,5.52e-06,0.0,0 STARLINK-5316,1 55305U 23010AN  24222.87757312  .00000552  00000-0  53997-4 0  9995,2 55305  70.0010  38.9925 0002919 267.7530  92.3295 14.98339700 86878,6950.163,96.106,574.057,569.999,0.0
55305.0,STARLINK-5316,PAYLOAD,2024-08-10 13:05:03,14.98327632,0.0002907,70.0013,37.3092,268.022,92.0606,7.1641e-05,7.62e-06,0.0,0 STARLINK-5316,1 55305U 23010AN  24223.54517957  .00000762  00000-0  71641-4 0  9998,2 55305  70.0013  37.3092 0002907 268.0220  92.0606 14.98327632 86656,6950.2,96.107,574.086,570.045,0.0
55305.0,STARLINK-5316,PAYLOAD,2024-08-10 14:41:11,14.98327526,0.0002912,70.0012,37.1409,268.0907,91.9918,6.9118e-05,7.32e-06,0.0,0 STARLINK-5316,1 55305U 23010AN  24223.61193981  .00000732  00000-0  69118-4 0  9996,2 55305  70.0012  37.1409 0002912 268.0907  91.9918 14.98327526 86985,6950.201,96.107,574.089,570.042,0.0
55305.0,STARLINK-5316,PAYLOAD,2024-08-10 21:05:43,14.98332758,0.0002869,70.0013,36.4677,267.6937,92.3894,0.00012611,1.412e-05,0.0,0 STARLINK-5316,1 55305U 23010AN  24223.87897553  .00001412  00000-0  12611-3 0  9991,2 55305  70.0013  36.4677 0002869 267.6937  92.3894 14.98332758 87021,6950.184,96.107,574.043,570.055,0.0
55305.0,STARLINK-5316,PAYLOAD,2024-08-11 11:30:56,14.98327939,0.0002842,70.0016,34.9538,269.8416,90.2417,-9.2508e-06,-2.03e-06,0.0,0 STARLINK-5316,1 55305U 23010AN  24224.47982338 -.00000203  00000-0 -92508-5 0  9998,2 55305  70.0016  34.9538 0002842 269.8416  90.2417 14.98327939 87113,6950.199,96.107,574.04,570.089,0.0
55305.0,STARLINK-5316,PAYLOAD,2024-08-12 05:08:24,14.98333755,0.0002693,70.0028,33.0981,261.6699,98.4155,7.4945e-05,8.01e-06,0.0,0 STARLINK-5316,1 55305U 23010AN  24225.21417658  .00000801  00000-0  74945-4 0  9995,2 55305  70.0028  33.0981 0002693 261.6699  98.4155 14.98333755 86903,6950.181,96.107,573.918,570.175,0.0
55305.0,STARLINK-5316,PAYLOAD,2024-08-12 09:56:48,14.98336261,0.0002954,69.9998,32.5928,268.8329,91.2492,9.3306e-05,1.021e-05,0.0,0 STARLINK-5316,1 55305U 23010AN  24225.41445440  .00001021  00000-0  93306-4 0  9994,2 55305  69.9998  32.5928 0002954 268.8329  91.2492 14.98336261 87259,6950.174,96.107,574.092,569.985,0.0
55305.0,STARLINK-5316,PAYLOAD,2024-08-12 21:09:44,14.98347844,0.0002764,70.0011,31.4171,271.4488,88.6355,0.00024248,2.803e-05,0.0,0 STARLINK-5316,1 55305U 23010AN  24225.88176327  .00002803  00000-0  24248-3 0  9997,2 55305  70.0011  31.4171 0002764 271.4488  88.6355 14.98347844 87001,6950.138,96.106,573.924,570.082,0.0
55305.0,STARLINK-5316,PAYLOAD,2024-08-13 17:59:33,14.98304202,0.0002729,70.0016,29.2291,272.414,87.6707,-0.00019336,-2.398e-05,0.0,0 STARLINK-5316,1 55305U 23010AN  24226.74968960 -.00002398  00000-0 -19336-3 0  9998,2 55305  70.0016  29.2291 0002729 272.4140  87.6707 14.98304202 87136,6950.273,96.109,574.034,570.241,0.0
55305.0,STARLINK-5316,PAYLOAD,2024-08-14 13:13:08,14.98329917,0.0002818,70.0019,27.2091,271.3186,88.765,0.00016306,1.853e-05,0.0,0 STARLINK-5316,1 55305U 23010AN  24227.55079390  .00001853  00000-0  16306-3 0  9995,2 55305  70.0019  27.2091 0002818 271.3186  88.7650 14.98329917 87254,6950.193,96.107,574.017,570.1,0.0
55305.0,STARLINK-5316,PAYLOAD,2024-08-14 14:49:16,14.98326774,0.0003203,70.0015,27.0408,272.1599,87.9193,0.0001249,1.397e-05,0.0,0 STARLINK-5316,1 55305U 23010AN  24227.61755579  .00001397  00000-0  12490-3 0  9995,2 55305  70.0015  27.0408 0003203 272.1599  87.9193 14.98326774 87583,6950.203,96.107,574.294,569.842,0.0
55305.0,STARLINK-5316,PAYLOAD,2024-08-14 21:13:48,14.98341382,0.0003482,70.0009,26.367,272.406,87.67,0.00047028,5.524e-05,0.0,0 STARLINK-5316,1 55305U 23010AN  24227.88459282  .00005524  00000-0  47028-3 0  9997,2 55305  70.0009  26.3670 0003482 272.4060  87.6700 14.98341382 87622,6950.158,96.106,574.443,569.603,0.0
55305.0,STARLINK-5316,PAYLOAD,2024-08-15 03:38:21,14.98343169,0.0003662,70.0011,25.6941,273.1845,86.8895,0.0011616,0.000138,0.0,0 STARLINK-5316,1 55305U 23010AN  24228.15164049  .00013800  00000-0  11616-2 0  9991,2 55305  70.0011  25.6941 0003662 273.1845  86.8895 14.98343169 87662,6950.152,96.106,574.562,569.472,0.0
55305.0,STARLINK-5316,PAYLOAD,2024-08-15 16:27:25,14.98360052,0.0003667,70.0012,24.3475,273.7201,86.3539,0.00091533,0.00010854,0.0,0 STARLINK-5316,1 55305U 23010AN  24228.68571124  .00010854  00000-0  91533-3 0  9998,2 55305  70.0012  24.3475 0003667 273.7201  86.3539 14.98360052 87422,6950.1,96.105,574.514,569.416,0.0
55305.0,STARLINK-5316,PAYLOAD,2024-08-16 03:40:21,14.98368985,0.0003693,70.0012,23.1693,270.914,89.1596,0.0010195,0.00012105,0.0,0 STARLINK-5316,1 55305U 23010AN  24229.15302119  .00012105  00000-0  10195-2 0  9992,2 55305  70.0012  23.1693 0003693 270.9140  89.1596 14.98368985 87811,6950.072,96.104,574.504,569.371,0.0
55305.0,STARLINK-5316,PAYLOAD,2024-08-16 19:41:42,14.98343659,0.00019,70.0022,21.486,275.8043,84.29,0.00055942,6.59e-05,0.0,0 STARLINK-5316,1 55305U 23010AN  24229.82062511  .00006590  00000-0  55942-3 0  9996,2 55305  70.0022  21.4860 0001900 275.8043  84.2900 14.98343659 87595,6950.151,96.106,573.336,570.695,0.0
55305.0,STARLINK-5316,PAYLOAD,2024-08-17 19:43:42,14.98345888,0.0002084,70.0034,18.9611,276.2989,83.7933,0.00038644,4.523e-05,0.0,0 STARLINK-5316,1 55305U 23010AN  24230.82201765  .00004523  00000-0  38644-3 0  9998,2 55305  70.0034  18.9611 0002084 276.2989  83.7933 14.98345888 87744,6950.144,96.106,573.457,570.56,0.0
55305.0,STARLINK-5316,PAYLOAD,2024-08-18 13:21:10,14.98337139,0.0003187,70.0025,17.1092,269.5795,90.4999,6.0501e-05,6.29e-06,0.0,0 STARLINK-5316,1 55305U 23010AN  24231.55637265  .00000629  00000-0  60501-4 0  9998,2 55305  70.0025  17.1092 0003187 269.5795  90.4999 14.98337139 87852,6950.171,96.107,574.251,569.821,0.0
55305.0,STARLINK-5316,PAYLOAD,2024-08-18 19:45:42,14.98338951,0.0003116,70.0018,16.4363,270.7629,89.3173,7.8235e-05,8.41e-06,0.0,0 STARLINK-5316,1 55305U 23010AN  24231.82341148  .00000841  00000-0  78235-4 0  9999,2 55305  70.0018  16.4363 0003116 270.7629  89.3173 14.98338951 88214,6950.165,96.106,574.196,569.865,0.0
55305.0,STARLINK-5316,PAYLOAD,2024-08-19 10:10:55,14.98348475,0.0002756,70.0026,14.9216,274.6077,85.4767,-0.00018462,-2.296e-05,0.0,0 STARLINK-5316,1 55305U 23010AN  24232.42425404 -.00002296  00000-0 -18462-3 0  9997,2 55305  70.0026  14.9216 0002756 274.6077  85.4767 14.98348475 88300,6950.136,96.106,573.916,570.085,0.0
55305.0,STARLINK-5316,PAYLOAD,2024-08-19 19:47:43,14.98333871,0.0002942,70.0024,13.9118,268.1295,91.9527,6.4753e-05,6.8e-06,0.0,0 STARLINK-5316,1 55305U 23010AN  24232.82481196  .00000680  00000-0  64753-4 0  9999,2 55305  70.0024  13.9118 0002942 268.1295  91.9527 14.98333871 88046,6950.181,96.107,574.091,570.001,0.0
55305.0,STARLINK-5316,PAYLOAD,2024-08-20 13:25:12,14.9833221,0.0002921,70.0022,12.0606,268.5163,91.5661,8.2145e-05,8.87e-06,0.0,0 STARLINK-5316,1 55305U 23010AN  24233.55917163  .00000887  00000-0  82145-4 0  9992,2 55305  70.0022  12.0606 0002921 268.5163  91.5661 14.98332210 88479,6950.186,96.107,574.081,570.021,0.0
55305.0,STARLINK-5316,PAYLOAD,2024-08-20 19:49:44,14.98333754,0.0002916,70.0023,11.3874,269.1722,90.9103,9.2958e-05,1.016e-05,0.0,0 STARLINK-5316,1 55305U 23010AN  24233.82621022  .00001016  00000-0  92958-4 0  9996,2 55305  70.0023  11.3874 0002916 269.1722  90.9103 14.98333754 88198,6950.181,96.107,574.073,570.02,0.0
55305.0,STARLINK-5316,PAYLOAD,2024-08-21 13:27:13,14.98326113,0.000289,70.0023,9.5361,268.6307,91.4521,1.3191e-05,6.4e-07,0.0,0 STARLINK-5316,1 55305U 23010AN  24234.56057754  .00000064  00000-0  13191-4 0  9997,2 55305  70.0023   9.5361 0002890 268.6307  91.4521 14.98326113 88306,6950.205,96.107,574.079,570.061,0.0
55305.0,STARLINK-5316,PAYLOAD,2024-08-21 15:03:21,14.98325756,0.0002889,70.0022,9.3677,268.0408,92.042,7.406e-06,-5e-08,0.0,0 STARLINK-5316,1 55305U 23010AN  24234.62733793 -.00000005  00000-0  74060-5 0  9997,2 55305  70.0022   9.3677 0002889 268.0408  92.0420 14.98325756 88630,6950.206,96.107,574.079,570.063,0.0
55305.0,STARLINK-5316,PAYLOAD,2024-08-21 19:51:46,14.98327279,0.0002872,70.0023,8.8626,266.1789,93.9041,2.1549e-05,1.64e-06,0.0,0 STARLINK-5316,1 55305U 23010AN  24234.82761673  .00000164  00000-0  21549-4 0  9995,2 55305  70.0023   8.8626 0002872 266.1789  93.9041 14.98327279 88666,6950.201,96.107,574.062,570.07,0.0
